STARLINK-37312          
1 68676U 26077Q   26114.56851128  .00206313  00000+0  13469-2 0  9994
2 68676  97.2850 345.7396 0001386  81.5075 278.6347 15.75259957  2135
STARLINK-36168          
1 68677U 26077R   26114.57062886  .00143735  00000+0  94652-3 0  9993
2 68677  97.2839 345.7384 0001497  84.0172 276.1264 15.75235758  2133
STARLINK-37122          
1 68678U 26077S   26114.63309684  .00160047  00000+0  10516-2 0  9992
2 68678  97.2842 345.8046 0000982  87.3239 272.8139 15.75241111  2147
STARLINK-37310          
1 68679U 26077T   26114.63238911  .00133919  00000+0  88263-3 0  9990
2 68679  97.2846 345.8063 0000797  75.9532 284.1822 15.75244611  2147
STARLINK-37306          
1 68680U 26077U   26114.37619171  .01446631  00000+0  86650-2 0  9990
2 68680  97.2850 345.5416 0002562  74.6308 285.5240 15.74928928  2106
STARLINK-37307          
1 68681U 26077V   26114.56710094  .00163079  00000+0  10711-2 0  9994
2 68681  97.2843 345.7414 0001872 114.1642 245.9819 15.75240634  2130
STARLINK-37300          
1 68682U 26077W   26114.62639251  .00226948  00000+0  14769-2 0  9999
2 68682  97.2838 345.8136 0001697  99.8887 260.2570 15.75274293  2145
STARLINK-37304          
1 68683U 26077X   26114.62674531  .00155694  00000+0  10236-2 0  9994
2 68683  97.2845 345.8134 0000923 102.4305 257.7063 15.75239733  2147
STARLINK-37287          
1 68684U 26077Y   26114.50076016  .00470331  00000+0  29897-2 0  9997
2 68684  97.2852 345.6796 0001037  53.0514 307.0846 15.75141984  2124
STARLINK-36278          
1 68685U 26077Z   26114.62568715  .00121456  00000+0  80262-3 0  9998
2 68685  97.2846 345.8163 0000530  97.3065 262.8260 15.75219435  2144
STARLINK-37213          
1 68686U 26077AA  26114.62886254  .00147505  00000+0  97087-3 0  9996
2 68686  97.2849 345.8105 0001376 128.2204 231.9186 15.75236307  2143
GUOWANG TEST OBJECT A   
1 68687U 26078A   26114.68240750  .00000281  00000+0  30768-3 0  9991
2 68687  86.4972 301.1003 0008243 241.7308 118.3020 13.68816904  1791
GUOWANG TEST OBJECT B   
1 68688U 26078B   26115.88290384  .00000339  00000+0  10596-3 0  9994
2 68688  86.5856 300.3667 0251064 339.0650  20.0396 14.21578762  2033
CYGNUS NG-24            
1 68689U 26079A   26115.16771349  .00010683  00000+0  20209-3 0  9997
2 68689  51.6320 202.5215 0006920 348.0684  12.0139 15.48944607  2166
GUOWANG TEST OBJECT C   
1 68690U 26078C   26115.82989492  .00005664  00000+0  26031-3 0  9993
2 68690  86.6402 300.1281 0442824 337.4358  20.7892 14.61824896  2086
JILIN GAOFEN OBJECT A   
1 68691U 26080A   26115.29029363  .00000944  00000+0  64843-4 0  9990
2 68691  97.6640 190.9122 0011282 240.0044 120.0065 15.08374010  1684
