[{"OBJECT_NAME":"STARLINK-37312","OBJECT_ID":"2026-077Q","EPOCH":"2026-04-24T13:38:39.374592","MEAN_MOTION":15.75259957,"ECCENTRICITY":0.00013866,"INCLINATION":97.285,"RA_OF_ASC_NODE":345.7396,"ARG_OF_PERICENTER":81.5075,"MEAN_ANOMALY":278.6347,"EPHEMERIS_TYPE":0,"CLASSIFICATION_TYPE":"U","NORAD_CAT_ID":68676,"ELEMENT_SET_NO":999,"REV_AT_EPOCH":213,"BSTAR":0.0013468542,"MEAN_MOTION_DOT":0.00206313,"MEAN_MOTION_DDOT":0},{"OBJECT_NAME":"STARLINK-36168","OBJECT_ID":"2026-077R","EPOCH":"2026-04-24T13:41:42.333504","MEAN_MOTION":15.75235758,"ECCENTRICITY":0.00014974,"INCLINATION":97.2839,"RA_OF_ASC_NODE":345.7384,"ARG_OF_PERICENTER":84.0172,"MEAN_ANOMALY":276.1264,"EPHEMERIS_TYPE":0,"CLASSIFICATION_TYPE":"U","NORAD_CAT_ID":68677,"ELEMENT_SET_NO":999,"REV_AT_EPOCH":213,"BSTAR":0.00094652181,"MEAN_MOTION_DOT":0.00143735,"MEAN_MOTION_DDOT":0},{"OBJECT_NAME":"STARLINK-37122","OBJECT_ID":"2026-077S","EPOCH":"2026-04-24T15:11:39.566976","MEAN_MOTION":15.75241111,"ECCENTRICITY":9.821e-5,"INCLINATION":97.2842,"RA_OF_ASC_NODE":345.8046,"ARG_OF_PERICENTER":87.3239,"MEAN_ANOMALY":272.8139,"EPHEMERIS_TYPE":0,"CLASSIFICATION_TYPE":"U","NORAD_CAT_ID":68678,"ELEMENT_SET_NO":999,"REV_AT_EPOCH":214,"BSTAR":0.0010515902,"MEAN_MOTION_DOT":0.00160047,"MEAN_MOTION_DDOT":0},{"OBJECT_NAME":"STARLINK-37310","OBJECT_ID":"2026-077T","EPOCH":"2026-04-24T15:10:38.419104","MEAN_MOTION":15.75244611,"ECCENTRICITY":7.979e-5,"INCLINATION":97.2846,"RA_OF_ASC_NODE":345.8063,"ARG_OF_PERICENTER":75.9532,"MEAN_ANOMALY":284.1822,"EPHEMERIS_TYPE":0,"CLASSIFICATION_TYPE":"U","NORAD_CAT_ID":68679,"ELEMENT_SET_NO":999,"REV_AT_EPOCH":214,"BSTAR":0.00088263413,"MEAN_MOTION_DOT":0.00133919,"MEAN_MOTION_DDOT":0},{"OBJECT_NAME":"STARLINK-37306","OBJECT_ID":"2026-077U","EPOCH":"2026-04-24T09:01:42.963744","MEAN_MOTION":15.74928928,"ECCENTRICITY":0.00025623,"INCLINATION":97.285,"RA_OF_ASC_NODE":345.5416,"ARG_OF_PERICENTER":74.6308,"MEAN_ANOMALY":285.524,"EPHEMERIS_TYPE":0,"CLASSIFICATION_TYPE":"U","NORAD_CAT_ID":68680,"ELEMENT_SET_NO":999,"REV_AT_EPOCH":210,"BSTAR":0.0086649719,"MEAN_MOTION_DOT":0.01446631,"MEAN_MOTION_DDOT":0},{"OBJECT_NAME":"STARLINK-37307","OBJECT_ID":"2026-077V","EPOCH":"2026-04-24T13:36:37.521216","MEAN_MOTION":15.75240634,"ECCENTRICITY":0.00018724,"INCLINATION":97.2843,"RA_OF_ASC_NODE":345.7414,"ARG_OF_PERICENTER":114.1642,"MEAN_ANOMALY":245.9819,"EPHEMERIS_TYPE":0,"CLASSIFICATION_TYPE":"U","NORAD_CAT_ID":68681,"ELEMENT_SET_NO":999,"REV_AT_EPOCH":213,"BSTAR":0.0010710992,"MEAN_MOTION_DOT":0.00163079,"MEAN_MOTION_DDOT":0},{"OBJECT_NAME":"STARLINK-37300","OBJECT_ID":"2026-077W","EPOCH":"2026-04-24T15:02:00.312864","MEAN_MOTION":15.75274293,"ECCENTRICITY":0.00016972,"INCLINATION":97.2838,"RA_OF_ASC_NODE":345.8136,"ARG_OF_PERICENTER":99.8887,"MEAN_ANOMALY":260.257,"EPHEMERIS_TYPE":0,"CLASSIFICATION_TYPE":"U","NORAD_CAT_ID":68682,"ELEMENT_SET_NO":999,"REV_AT_EPOCH":214,"BSTAR":0.0014769477,"MEAN_MOTION_DOT":0.00226948,"MEAN_MOTION_DDOT":0},{"OBJECT_NAME":"STARLINK-37304","OBJECT_ID":"2026-077X","EPOCH":"2026-04-24T15:02:30.794784","MEAN_MOTION":15.75239733,"ECCENTRICITY":9.234e-5,"INCLINATION":97.2845,"RA_OF_ASC_NODE":345.8134,"ARG_OF_PERICENTER":102.4305,"MEAN_ANOMALY":257.7063,"EPHEMERIS_TYPE":0,"CLASSIFICATION_TYPE":"U","NORAD_CAT_ID":68683,"ELEMENT_SET_NO":999,"REV_AT_EPOCH":214,"BSTAR":0.0010235952,"MEAN_MOTION_DOT":0.00155694,"MEAN_MOTION_DDOT":0},{"OBJECT_NAME":"STARLINK-37287","OBJECT_ID":"2026-077Y","EPOCH":"2026-04-24T12:01:05.677824","MEAN_MOTION":15.75141984,"ECCENTRICITY":0.00010376,"INCLINATION":97.2852,"RA_OF_ASC_NODE":345.6796,"ARG_OF_PERICENTER":53.0514,"MEAN_ANOMALY":307.0846,"EPHEMERIS_TYPE":0,"CLASSIFICATION_TYPE":"U","NORAD_CAT_ID":68684,"ELEMENT_SET_NO":999,"REV_AT_EPOCH":212,"BSTAR":0.0029897376,"MEAN_MOTION_DOT":0.00470331,"MEAN_MOTION_DDOT":0},{"OBJECT_NAME":"STARLINK-36278","OBJECT_ID":"2026-077Z","EPOCH":"2026-04-24T15:00:59.369760","MEAN_MOTION":15.75219435,"ECCENTRICITY":5.3e-5,"INCLINATION":97.2846,"RA_OF_ASC_NODE":345.8163,"ARG_OF_PERICENTER":97.3065,"MEAN_ANOMALY":262.826,"EPHEMERIS_TYPE":0,"CLASSIFICATION_TYPE":"U","NORAD_CAT_ID":68685,"ELEMENT_SET_NO":999,"REV_AT_EPOCH":214,"BSTAR":0.00080262119,"MEAN_MOTION_DOT":0.00121456,"MEAN_MOTION_DDOT":0},{"OBJECT_NAME":"STARLINK-37213","OBJECT_ID":"2026-077AA","EPOCH":"2026-04-24T15:05:33.723456","MEAN_MOTION":15.75236307,"ECCENTRICITY":0.00013767,"INCLINATION":97.2849,"RA_OF_ASC_NODE":345.8105,"ARG_OF_PERICENTER":128.2204,"MEAN_ANOMALY":231.9186,"EPHEMERIS_TYPE":0,"CLASSIFICATION_TYPE":"U","NORAD_CAT_ID":68686,"ELEMENT_SET_NO":999,"REV_AT_EPOCH":214,"BSTAR":0.00097087416,"MEAN_MOTION_DOT":0.00147505,"MEAN_MOTION_DDOT":0},{"OBJECT_NAME":"GUOWANG TEST OBJECT A","OBJECT_ID":"2026-078A","EPOCH":"2026-04-24T16:22:40.008000","MEAN_MOTION":13.68816904,"ECCENTRICITY":0.00082439,"INCLINATION":86.4972,"RA_OF_ASC_NODE":301.1003,"ARG_OF_PERICENTER":241.7308,"MEAN_ANOMALY":118.302,"EPHEMERIS_TYPE":0,"CLASSIFICATION_TYPE":"U","NORAD_CAT_ID":68687,"ELEMENT_SET_NO":999,"REV_AT_EPOCH":179,"BSTAR":0.00030768254,"MEAN_MOTION_DOT":2.81e-6,"MEAN_MOTION_DDOT":0},{"OBJECT_NAME":"GUOWANG TEST OBJECT B","OBJECT_ID":"2026-078B","EPOCH":"2026-04-25T21:11:22.891776","MEAN_MOTION":14.21578762,"ECCENTRICITY":0.0251064,"INCLINATION":86.5856,"RA_OF_ASC_NODE":300.3667,"ARG_OF_PERICENTER":339.065,"MEAN_ANOMALY":20.0396,"EPHEMERIS_TYPE":0,"CLASSIFICATION_TYPE":"U","NORAD_CAT_ID":68688,"ELEMENT_SET_NO":999,"REV_AT_EPOCH":203,"BSTAR":0.00010596,"MEAN_MOTION_DOT":3.39e-6,"MEAN_MOTION_DDOT":0},{"OBJECT_NAME":"CYGNUS NG-24","OBJECT_ID":"2026-079A","EPOCH":"2026-04-25T04:01:30.445536","MEAN_MOTION":15.48944607,"ECCENTRICITY":0.00069208,"INCLINATION":51.632,"RA_OF_ASC_NODE":202.5215,"ARG_OF_PERICENTER":348.0684,"MEAN_ANOMALY":12.0139,"EPHEMERIS_TYPE":0,"CLASSIFICATION_TYPE":"U","NORAD_CAT_ID":68689,"ELEMENT_SET_NO":999,"REV_AT_EPOCH":216,"BSTAR":0.00020209254,"MEAN_MOTION_DOT":0.00010683,"MEAN_MOTION_DDOT":0},{"OBJECT_NAME":"GUOWANG TEST OBJECT C","OBJECT_ID":"2026-078C","EPOCH":"2026-04-25T19:55:02.921088","MEAN_MOTION":14.61824896,"ECCENTRICITY":0.0442824,"INCLINATION":86.6402,"RA_OF_ASC_NODE":300.1281,"ARG_OF_PERICENTER":337.4358,"MEAN_ANOMALY":20.7892,"EPHEMERIS_TYPE":0,"CLASSIFICATION_TYPE":"U","NORAD_CAT_ID":68690,"ELEMENT_SET_NO":999,"REV_AT_EPOCH":208,"BSTAR":0.00026031,"MEAN_MOTION_DOT":5.664e-5,"MEAN_MOTION_DDOT":0},{"OBJECT_NAME":"JILIN GAOFEN OBJECT A","OBJECT_ID":"2026-080A","EPOCH":"2026-04-25T06:58:01.369632","MEAN_MOTION":15.0837401,"ECCENTRICITY":0.00112824,"INCLINATION":97.664,"RA_OF_ASC_NODE":190.9122,"ARG_OF_PERICENTER":240.0044,"MEAN_ANOMALY":120.0065,"EPHEMERIS_TYPE":0,"CLASSIFICATION_TYPE":"U","NORAD_CAT_ID":68691,"ELEMENT_SET_NO":999,"REV_AT_EPOCH":168,"BSTAR":6.4842712e-5,"MEAN_MOTION_DOT":9.44e-6,"MEAN_MOTION_DDOT":0}]
